[{"OBJECT_NAME":"ONEWEB-0059","OBJECT_ID":"2020-008AH","EPOCH":"2026-03-09T22:37:08.623488","MEAN_MOTION":13.10371205,"ECCENTRICITY":0.00016655,"INCLINATION":87.8803,"RA_OF_ASC_NODE":56.0352,"ARG_OF_PERICENTER":102.322,"MEAN_ANOMALY":257.8094,"EPHEMERIS_TYPE":0,"CLASSIFICATION_TYPE":"U","NORAD_CAT_ID":45162,"ELEMENT_SET_NO":999,"REV_AT_EPOCH":29532,"BSTAR":-0.0014862615,"MEAN_MOTION_DOT":-5.06e-6,"MEAN_MOTION_DDOT":0},{"OBJECT_NAME":"SL-14 DEB","OBJECT_ID":"1991-056Y","EPOCH":"2026-03-09T12:40:05.556576","MEAN_MOTION":13.15664701,"ECCENTRICITY":0.0023415,"INCLINATION":82.6266,"RA_OF_ASC_NODE":230.5038,"ARG_OF_PERICENTER":64.2715,"MEAN_ANOMALY":296.082,"EPHEMERIS_TYPE":0,"CLASSIFICATION_TYPE":"U","NORAD_CAT_ID":45286,"ELEMENT_SET_NO":999,"REV_AT_EPOCH":29068,"BSTAR":0.0007556411,"MEAN_MOTION_DOT":2.98e-6,"MEAN_MOTION_DDOT":0}]
